{"type": "FeatureCollection", "features": [ {"type": "Feature", "properties": {"norad_id": 33939, "name": "COSMOS 2251 DEB", "group": "cosmos-2251-debris", "lat": -42.24084124148136, "lon": 77.82412440131925, "alt_km": 577.2772482136352, "timestamp": "2025-12-06T16:45:43.114702+00:00", "meta": {"OBJECT_NAME": "COSMOS 2251 DEB", "OBJECT_ID": "1993-036EU", "EPOCH": "2025-12-06T07:21:00.044928", "MEAN_MOTION": 14.99115137, "ECCENTRICITY": 0.0002999, "INCLINATION": 74.0076, "RA_OF_ASC_NODE": 93.7164, "ARG_OF_PERICENTER": 94.6993, "MEAN_ANOMALY": 265.4536, "EPHEMERIS_TYPE": 0, "CLASSIFICATION_TYPE": "U", "NORAD_CAT_ID": 33939, "ELEMENT_SET_NO": 999, "REV_AT_EPOCH": 88656, "BSTAR": 0.0063899493, "MEAN_MOTION_DOT": 0.00078532, "MEAN_MOTION_DDOT": 0}, "tle": {"line1": "1 33939U 93036EU  25340.30625052  .00078532  00000+0  63899-2 0  9996", "line2": "2 33939  74.0076  93.7164 0002999  94.6993 265.4536 14.99115137886567"}}, "geometry": {"type": "Point", "coordinates": [77.82412440131925, -42.24084124148136]}}, {"type": "Feature", "properties": {"norad_id": 33940, "name": "COSMOS 2251 DEB", "group": "cosmos-2251-debris", "lat": -66.36896971677436, "lon": 15.852576490900999, "alt_km": 696.4431862594274, "timestamp": "2025-12-06T16:45:43.114712+00:00", "meta": {"OBJECT_NAME": "COSMOS 2251 DEB", "OBJECT_ID": "1993-036EV", "EPOCH": "2025-12-06T06:32:18.593088", "MEAN_MOTION": 14.58696886, "ECCENTRICITY": 0.00115965, "INCLINATION": 74.0387, "RA_OF_ASC_NODE": 155.8097, "ARG_OF_PERICENTER": 235.2155, "MEAN_ANOMALY": 301.0248, "EPHEMERIS_TYPE": 0, "CLASSIFICATION_TYPE": "U", "NORAD_CAT_ID": 33940, "ELEMENT_SET_NO": 999, "REV_AT_EPOCH": 88499, "BSTAR": 0.0019228639, "MEAN_MOTION_DOT": 8.96e-05, "MEAN_MOTION_DDOT": 0}, "tle": {"line1": "1 33940U 93036EV  25340.27243742  .00008960  00000+0  19229-2 0  9992", "line2": "2 33940  74.0387 155.8097 0011596 235.2155 301.0248 14.58696886884997"}}, "geometry": {"type": "Point", "coordinates": [15.852576490900999, -66.36896971677436]}}, {"type": "Feature", "properties": {"norad_id": 33942, "name": "COSMOS 2251 DEB", "group": "cosmos-2251-debris", "lat": -0.8385923175661916, "lon": 106.19524652421963, "alt_km": 782.0107005621048, "timestamp": "2025-12-06T16:45:43.114722+00:00", "meta": {"OBJECT_NAME": "COSMOS 2251 DEB", "OBJECT_ID": "1993-036EX", "EPOCH": "2025-12-06T01:15:15.415200", "MEAN_MOTION": 14.37972423, "ECCENTRICITY": 0.00200111, "INCLINATION": 74.0362, "RA_OF_ASC_NODE": 287.1447, "ARG_OF_PERICENTER": 11.877, "MEAN_ANOMALY": 65.241, "EPHEMERIS_TYPE": 0, "CLASSIFICATION_TYPE": "U", "NORAD_CAT_ID": 33942, "ELEMENT_SET_NO": 999, "REV_AT_EPOCH": 88038, "BSTAR": 0.00044020068, "MEAN_MOTION_DOT": 1.308e-05, "MEAN_MOTION_DDOT": 0}, "tle": {"line1": "1 33942U 93036EX  25340.05226175  .00001308  00000+0  44020-3 0  9998", "line2": "2 33942  74.0362 287.1447 0020011  11.8770  65.2410 14.37972423880383"}}, "geometry": {"type": "Point", "coordinates": [106.19524652421963, -0.8385923175661916]}}, {"type": "Feature", "properties": {"norad_id": 33944, "name": "COSMOS 2251 DEB", "group": "cosmos-2251-debris", "lat": 64.17966671115202, "lon": -3.6985255646903195, "alt_km": 681.5310762564759, "timestamp": "2025-12-06T16:45:43.114733+00:00", "meta": {"OBJECT_NAME": "COSMOS 2251 DEB", "OBJECT_ID": "1993-036EZ", "EPOCH": "2025-12-05T23:59:44.079072", "MEAN_MOTION": 14.37320441, "ECCENTRICITY": 0.01119666, "INCLINATION": 74.04, "RA_OF_ASC_NODE": 321.3265, "ARG_OF_PERICENTER": 62.7047, "MEAN_ANOMALY": 353.2393, "EPHEMERIS_TYPE": 0, "CLASSIFICATION_TYPE": "U", "NORAD_CAT_ID": 33944, "ELEMENT_SET_NO": 999, "REV_AT_EPOCH": 87931, "BSTAR": 0.00052859209, "MEAN_MOTION_DOT": 1.669e-05, "MEAN_MOTION_DDOT": 0}, "tle": {"line1": "1 33944U 93036EZ  25339.99981573  .00001669  00000+0  52859-3 0  9990", "line2": "2 33944  74.0400 321.3265 0111966  62.7047 353.2393 14.37320441879317"}}, "geometry": {"type": "Point", "coordinates": [-3.6985255646903195, 64.17966671115202]}}, {"type": "Feature", "properties": {"norad_id": 33945, "name": "COSMOS 2251 DEB", "group": "cosmos-2251-debris", "lat": -70.49682266978516, "lon": -96.61707625504876, "alt_km": 792.0395300886212, "timestamp": "2025-12-06T16:45:43.114743+00:00", "meta": {"OBJECT_NAME": "COSMOS 2251 DEB", "OBJECT_ID": "1993-036FA", "EPOCH": "2025-12-06T05:24:45.603648", "MEAN_MOTION": 14.34592322, "ECCENTRICITY": 0.00216527, "INCLINATION": 74.0294, "RA_OF_ASC_NODE": 318.2041, "ARG_OF_PERICENTER": 46.5394, "MEAN_ANOMALY": 313.7554, "EPHEMERIS_TYPE": 0, "CLASSIFICATION_TYPE": "U", "NORAD_CAT_ID": 33945, "ELEMENT_SET_NO": 999, "REV_AT_EPOCH": 87922, "BSTAR": 0.00024323081, "MEAN_MOTION_DOT": 6.63e-06, "MEAN_MOTION_DDOT": 0}, "tle": {"line1": "1 33945U 93036FA  25340.22552782  .00000663  00000+0  24323-3 0  9993", "line2": "2 33945  74.0294 318.2041 0021652  46.5394 313.7554 14.34592322879229"}}, "geometry": {"type": "Point", "coordinates": [-96.61707625504876, -70.49682266978516]}}, {"type": "Feature", "properties": {"norad_id": 33948, "name": "COSMOS 2251 DEB", "group": "cosmos-2251-debris", "lat": 65.7510666979939, "lon": 96.76045260642677, "alt_km": 761.9733781728628, "timestamp": "2025-12-06T16:45:43.114753+00:00", "meta": {"OBJECT_NAME": "COSMOS 2251 DEB", "OBJECT_ID": "1993-036FD", "EPOCH": "2025-12-06T04:33:12.658176", "MEAN_MOTION": 14.35616727, "ECCENTRICITY": 0.00224501, "INCLINATION": 74.035, "RA_OF_ASC_NODE": 317.1524, "ARG_OF_PERICENTER": 34.8262, "MEAN_ANOMALY": 325.4354, "EPHEMERIS_TYPE": 0, "CLASSIFICATION_TYPE": "U", "NORAD_CAT_ID": 33948, "ELEMENT_SET_NO": 999, "REV_AT_EPOCH": 87929, "BSTAR": 0.00034986517, "MEAN_MOTION_DOT": 9.86e-06, "MEAN_MOTION_DDOT": 0}, "tle": {"line1": "1 33948U 93036FD  25340.18972984  .00000986  00000+0  34987-3 0  9996", "line2": "2 33948  74.0350 317.1524 0022450  34.8262 325.4354 14.35616727879292"}}, "geometry": {"type": "Point", "coordinates": [96.76045260642677, 65.7510666979939]}}, {"type": "Feature", "properties": {"norad_id": 33971, "name": "COSMOS 2251 DEB", "group": "cosmos-2251-debris", "lat": 73.79244503073748, "lon": -14.866410139558962, "alt_km": 749.962672944489, "timestamp": "2025-12-06T16:45:43.114763+00:00", "meta": {"OBJECT_NAME": "COSMOS 2251 DEB", "OBJECT_ID": "1993-036FE", "EPOCH": "2025-12-06T05:22:56.441568", "MEAN_MOTION": 14.39705739, "ECCENTRICITY": 0.00182313, "INCLINATION": 74.025, "RA_OF_ASC_NODE": 265.774, "ARG_OF_PERICENTER": 7.4359, "MEAN_ANOMALY": 143.1409, "EPHEMERIS_TYPE": 0, "CLASSIFICATION_TYPE": "U", "NORAD_CAT_ID": 33971, "ELEMENT_SET_NO": 999, "REV_AT_EPOCH": 88045, "BSTAR": 0.0005538124, "MEAN_MOTION_DOT": 1.711e-05, "MEAN_MOTION_DDOT": 0}, "tle": {"line1": "1 33971U 93036FE  25340.22426437  .00001711  00000+0  55381-3 0  9992", "line2": "2 33971  74.0250 265.7740 0018231   7.4359 143.1409 14.39705739880452"}}, "geometry": {"type": "Point", "coordinates": [-14.866410139558962, 73.79244503073748]}}, {"type": "Feature", "properties": {"norad_id": 33972, "name": "COSMOS 2251 DEB", "group": "cosmos-2251-debris", "lat": 69.42604502071785, "lon": -28.09263674939494, "alt_km": 766.4085894500349, "timestamp": "2025-12-06T16:45:43.114773+00:00", "meta": {"OBJECT_NAME": "COSMOS 2251 DEB", "OBJECT_ID": "1993-036FF", "EPOCH": "2025-12-06T01:56:56.955264", "MEAN_MOTION": 14.36153035, "ECCENTRICITY": 0.01230179, "INCLINATION": 73.9941, "RA_OF_ASC_NODE": 202.9255, "ARG_OF_PERICENTER": 12.15, "MEAN_ANOMALY": 139.7549, "EPHEMERIS_TYPE": 0, "CLASSIFICATION_TYPE": "U", "NORAD_CAT_ID": 33972, "ELEMENT_SET_NO": 999, "REV_AT_EPOCH": 86978, "BSTAR": 0.0018088582, "MEAN_MOTION_DOT": 5.724e-05, "MEAN_MOTION_DDOT": 0}, "tle": {"line1": "1 33972U 93036FF  25340.08121476  .00005724  00000+0  18089-2 0  9993", "line2": "2 33972  73.9941 202.9255 0123017  12.1500 139.7549 14.36153035869784"}}, "geometry": {"type": "Point", "coordinates": [-28.09263674939494, 69.42604502071785]}}, {"type": "Feature", "properties": {"norad_id": 33973, "name": "COSMOS 2251 DEB", "group": "cosmos-2251-debris", "lat": 12.52225225859188, "lon": 117.82468309709276, "alt_km": 735.3383166638878, "timestamp": "2025-12-06T16:45:43.114783+00:00", "meta": {"OBJECT_NAME": "COSMOS 2251 DEB", "OBJECT_ID": "1993-036FG", "EPOCH": "2025-12-06T02:17:24.439200", "MEAN_MOTION": 14.45378986, "ECCENTRICITY": 0.00472021, "INCLINATION": 74.0075, "RA_OF_ASC_NODE": 115.2981, "ARG_OF_PERICENTER": 294.942, "MEAN_ANOMALY": 181.3444, "EPHEMERIS_TYPE": 0, "CLASSIFICATION_TYPE": "U", "NORAD_CAT_ID": 33973, "ELEMENT_SET_NO": 999, "REV_AT_EPOCH": 88504, "BSTAR": 0.00026527605, "MEAN_MOTION_DOT": 9.18e-06, "MEAN_MOTION_DDOT": 0}, "tle": {"line1": "1 33973U 93036FG  25340.09542175  .00000918  00000+0  26528-3 0  9996", "line2": "2 33973  74.0075 115.2981 0047202 294.9420 181.3444 14.45378986885047"}}, "geometry": {"type": "Point", "coordinates": [117.82468309709276, 12.52225225859188]}}, {"type": "Feature", "properties": {"norad_id": 33975, "name": "COSMOS 2251 DEB", "group": "cosmos-2251-debris", "lat": -26.7422023836979, "lon": -76.50537432121615, "alt_km": 767.1050352192233, "timestamp": "2025-12-06T16:45:43.114793+00:00", "meta": {"OBJECT_NAME": "COSMOS 2251 DEB", "OBJECT_ID": "1993-036FJ", "EPOCH": "2025-12-06T07:11:21.974496", "MEAN_MOTION": 14.00502609, "ECCENTRICITY": 0.01914371, "INCLINATION": 73.8013, "RA_OF_ASC_NODE": 95.7732, "ARG_OF_PERICENTER": 229.6466, "MEAN_ANOMALY": 128.7816, "EPHEMERIS_TYPE": 0, "CLASSIFICATION_TYPE": "U", "NORAD_CAT_ID": 33975, "ELEMENT_SET_NO": 999, "REV_AT_EPOCH": 85739, "BSTAR": 0.0013032234, "MEAN_MOTION_DOT": 2.241e-05, "MEAN_MOTION_DDOT": 0}, "tle": {"line1": "1 33975U 93036FJ  25340.29955989  .00002241  00000+0  13032-2 0  9997", "line2": "2 33975  73.8013  95.7732 0191437 229.6466 128.7816 14.00502609857396"}}, "geometry": {"type": "Point", "coordinates": [-76.50537432121615, -26.7422023836979]}}]}